[{"OBJECT_NAME":"ISS OBJECT YE","OBJECT_ID":"1998-067YE","EPOCH":"2026-03-04T12:07:23.752992","MEAN_MOTION":15.51890022,"ECCENTRICITY":0.00077863,"INCLINATION":51.6315,"RA_OF_ASC_NODE":97.5383,"ARG_OF_PERICENTER":134.731,"MEAN_ANOMALY":225.4314,"EPHEMERIS_TYPE":0,"CLASSIFICATION_TYPE":"U","NORAD_CAT_ID":67688,"ELEMENT_SET_NO":999,"REV_AT_EPOCH":390,"BSTAR":0.0010599088,"MEAN_MOTION_DOT":0.00064836,"MEAN_MOTION_DDOT":0},{"OBJECT_NAME":"CREW DRAGON 12","OBJECT_ID":"2026-031A","EPOCH":"2026-03-05T06:05:40.876512","MEAN_MOTION":15.48454548,"ECCENTRICITY":0.00081607,"INCLINATION":51.6314,"RA_OF_ASC_NODE":94.2866,"ARG_OF_PERICENTER":158.8383,"MEAN_ANOMALY":201.2944,"EPHEMERIS_TYPE":0,"CLASSIFICATION_TYPE":"U","NORAD_CAT_ID":67796,"ELEMENT_SET_NO":999,"REV_AT_EPOCH":55556,"BSTAR":0.00016717327,"MEAN_MOTION_DOT":8.604e-5,"MEAN_MOTION_DDOT":0}]
